[{"OBJECT_NAME":"CENTISPACE-1 S9","OBJECT_ID":"2025-007D","EPOCH":"2026-03-09T22:07:56.074656","MEAN_MOTION":13.83191394,"ECCENTRICITY":0.00092392,"INCLINATION":54.9818,"RA_OF_ASC_NODE":279.4927,"ARG_OF_PERICENTER":251.979,"MEAN_ANOMALY":108.0161,"EPHEMERIS_TYPE":0,"CLASSIFICATION_TYPE":"U","NORAD_CAT_ID":62578,"ELEMENT_SET_NO":999,"REV_AT_EPOCH":6100,"BSTAR":0.00010536643,"MEAN_MOTION_DOT":-2.5e-7,"MEAN_MOTION_DDOT":0},{"OBJECT_NAME":"FENGYUN 1C DEB","OBJECT_ID":"1999-025DWW","EPOCH":"2026-03-09T15:51:34.243200","MEAN_MOTION":14.27476454,"ECCENTRICITY":0.02344354,"INCLINATION":99.1185,"RA_OF_ASC_NODE":19.3421,"ARG_OF_PERICENTER":29.2974,"MEAN_ANOMALY":332.1119,"EPHEMERIS_TYPE":0,"CLASSIFICATION_TYPE":"U","NORAD_CAT_ID":36269,"ELEMENT_SET_NO":999,"REV_AT_EPOCH":88956,"BSTAR":0.0014984194,"MEAN_MOTION_DOT":4.881e-5,"MEAN_MOTION_DDOT":0}]
